[{"OBJECT_NAME":"STARLINK-32872","OBJECT_ID":"2025-032Q","EPOCH":"2026-03-09T02:05:11.912352","MEAN_MOTION":15.27581564,"ECCENTRICITY":0.00018528,"INCLINATION":43.0033,"RA_OF_ASC_NODE":339.8177,"ARG_OF_PERICENTER":257.3444,"MEAN_ANOMALY":102.72,"EPHEMERIS_TYPE":0,"CLASSIFICATION_TYPE":"U","NORAD_CAT_ID":63019,"ELEMENT_SET_NO":999,"REV_AT_EPOCH":6052,"BSTAR":0.0013464023,"MEAN_MOTION_DOT":0.00036976,"MEAN_MOTION_DDOT":0},{"OBJECT_NAME":"HERMES-2","OBJECT_ID":"2025-052AK","EPOCH":"2026-03-09T22:17:00.130272","MEAN_MOTION":15.28021069,"ECCENTRICITY":0.00063399,"INCLINATION":97.4004,"RA_OF_ASC_NODE":324.4926,"ARG_OF_PERICENTER":99.416,"MEAN_ANOMALY":260.7796,"EPHEMERIS_TYPE":0,"CLASSIFICATION_TYPE":"U","NORAD_CAT_ID":63243,"ELEMENT_SET_NO":999,"REV_AT_EPOCH":5485,"BSTAR":0.00034839454,"MEAN_MOTION_DOT":9.456e-5,"MEAN_MOTION_DDOT":0}]
